{
  "type": "FeatureCollection",
  "features": [
    {
      "type": "Feature",
      "properties": {
        "norad_id": 43719,
        "name": "HYSIS",
        "group": "resource",
        "lat": -40.61018278341182,
        "lon": -136.26137127843273,
        "alt_km": 641.0476210135957,
        "timestamp": "2025-12-13T16:48:32.371111+00:00",
        "meta_object_name": "HYSIS",
        "meta_object_id": "2018-096A",
        "meta_epoch": "2025-12-13T01:11:44.860992",
        "meta_mean_motion": 14.78645938,
        "meta_eccentricity": 0.00013202,
        "meta_inclination": 98.0095,
        "meta_ra_of_asc_node": 50.0254,
        "meta_arg_of_pericenter": 58.176,
        "meta_mean_anomaly": 301.958,
        "meta_ephemeris_type": 0,
        "meta_classification_type": "U",
        "meta_norad_cat_id": 43719,
        "meta_element_set_no": 999,
        "meta_rev_at_epoch": 37991,
        "meta_bstar": 0.0002386576,
        "meta_mean_motion_dot": 1.696e-05,
        "meta_mean_motion_ddot": 0,
        "tle_line1": "1 43719U 18096A   25347.04982478  .00001696  00000+0  23866-3 0  9990",
        "tle_line2": "2 43719  98.0095  50.0254 0001320  58.1760 301.9580 14.78645938379916"
      },
      "geometry": {
        "type": "Point",
        "coordinates": [
          -136.26137127843273,
          -40.61018278341182
        ]
      }
    },
    {
      "type": "Feature",
      "properties": {
        "norad_id": 43783,
        "name": "KAZSTSAT",
        "group": "resource",
        "lat": 11.162246954584676,
        "lon": -155.674750069337,
        "alt_km": 574.1864269354764,
        "timestamp": "2025-12-13T16:48:32.371121+00:00",
        "meta_object_name": "KAZSTSAT",
        "meta_object_id": "2018-099AB",
        "meta_epoch": "2025-12-13T00:02:31.659648",
        "meta_mean_motion": 14.9935426,
        "meta_eccentricity": 0.00059098,
        "meta_inclination": 97.4559,
        "meta_ra_of_asc_node": 22.1758,
        "meta_arg_of_pericenter": 329.1628,
        "meta_mean_anomaly": 30.9248,
        "meta_ephemeris_type": 0,
        "meta_classification_type": "U",
        "meta_norad_cat_id": 43783,
        "meta_element_set_no": 999,
        "meta_rev_at_epoch": 38340,
        "meta_bstar": 0.00017483859,
        "meta_mean_motion_dot": 2.082e-05,
        "meta_mean_motion_ddot": 0,
        "tle_line1": "1 43783U 18099AB  25347.00175532  .00002082  00000+0  17484-3 0  9994",
        "tle_line2": "2 43783  97.4559  22.1758 0005909 329.1628  30.9248 14.99354260383402"
      },
      "geometry": {
        "type": "Point",
        "coordinates": [
          -155.674750069337,
          11.162246954584676
        ]
      }
    },
    {
      "type": "Feature",
      "properties": {
        "norad_id": 43831,
        "name": "SAUDISAT 5A",
        "group": "resource",
        "lat": -47.47936133958568,
        "lon": 55.948671634792305,
        "alt_km": 499.7679627499074,
        "timestamp": "2025-12-13T16:48:32.371132+00:00",
        "meta_object_name": "SAUDISAT 5A",
        "meta_object_id": "2018-102A",
        "meta_epoch": "2025-12-12T23:42:14.623200",
        "meta_mean_motion": 15.25662418,
        "meta_eccentricity": 0.00117492,
        "meta_inclination": 97.3355,
        "meta_ra_of_asc_node": 47.1738,
        "meta_arg_of_pericenter": 75.5021,
        "meta_mean_anomaly": 284.752,
        "meta_ephemeris_type": 0,
        "meta_classification_type": "U",
        "meta_norad_cat_id": 43831,
        "meta_element_set_no": 999,
        "meta_rev_at_epoch": 38726,
        "meta_bstar": 0.0003872994,
        "meta_mean_motion_dot": 9.809e-05,
        "meta_mean_motion_ddot": 0,
        "tle_line1": "1 43831U 18102A   25346.98766925  .00009809  00000+0  38730-3 0  9992",
        "tle_line2": "2 43831  97.3355  47.1738 0011749  75.5021 284.7520 15.25662418387269"
      },
      "geometry": {
        "type": "Point",
        "coordinates": [
          55.948671634792305,
          -47.47936133958568
        ]
      }
    },
    {
      "type": "Feature",
      "properties": {
        "norad_id": 43833,
        "name": "SAUDISAT 5B",
        "group": "resource",
        "lat": 5.365075152089752,
        "lon": 49.918901454711296,
        "alt_km": 487.10115319393753,
        "timestamp": "2025-12-13T16:48:32.371142+00:00",
        "meta_object_name": "SAUDISAT 5B",
        "meta_object_id": "2018-102C",
        "meta_epoch": "2025-12-12T23:28:27.662880",
        "meta_mean_motion": 15.26014556,
        "meta_eccentricity": 0.00124691,
        "meta_inclination": 97.3449,
        "meta_ra_of_asc_node": 49.9033,
        "meta_arg_of_pericenter": 77.8405,
        "meta_mean_anomaly": 282.423,
        "meta_ephemeris_type": 0,
        "meta_classification_type": "U",
        "meta_norad_cat_id": 43833,
        "meta_element_set_no": 999,
        "meta_rev_at_epoch": 38737,
        "meta_bstar": 0.00035825247,
        "meta_mean_motion_dot": 9.166e-05,
        "meta_mean_motion_ddot": 0,
        "tle_line1": "1 43833U 18102C   25346.97809795  .00009166  00000+0  35825-3 0  9994",
        "tle_line2": "2 43833  97.3449  49.9033 0012469  77.8405 282.4230 15.26014556387374"
      },
      "geometry": {
        "type": "Point",
        "coordinates": [
          49.918901454711296,
          5.365075152089752
        ]
      }
    },
    {
      "type": "Feature",
      "properties": {
        "norad_id": 44622,
        "name": "GAOFEN-10R",
        "group": "resource",
        "lat": 19.902753998041877,
        "lon": 118.13905339060135,
        "alt_km": 623.4386471355947,
        "timestamp": "2025-12-13T16:48:32.371152+00:00",
        "meta_object_name": "GAOFEN-10R",
        "meta_object_id": "2019-066A",
        "meta_epoch": "2025-12-12T23:53:45.036960",
        "meta_mean_motion": 14.82794171,
        "meta_eccentricity": 0.00078706,
        "meta_inclination": 98.0275,
        "meta_ra_of_asc_node": 294.5029,
        "meta_arg_of_pericenter": 41.2206,
        "meta_mean_anomaly": 318.96,
        "meta_ephemeris_type": 0,
        "meta_classification_type": "U",
        "meta_norad_cat_id": 44622,
        "meta_element_set_no": 999,
        "meta_rev_at_epoch": 33478,
        "meta_bstar": 0.00034126891,
        "meta_mean_motion_dot": 2.707e-05,
        "meta_mean_motion_ddot": 0,
        "tle_line1": "1 44622U 19066A   25346.99566015  .00002707  00000+0  34127-3 0  9996",
        "tle_line2": "2 44622  98.0275 294.5029 0007870  41.2206 318.9600 14.82794171334785"
      },
      "geometry": {
        "type": "Point",
        "coordinates": [
          118.13905339060135,
          19.902753998041877
        ]
      }
    },
    {
      "type": "Feature",
      "properties": {
        "norad_id": 44804,
        "name": "CARTOSAT-3",
        "group": "resource",
        "lat": 82.41075359236768,
        "lon": -32.230191636012755,
        "alt_km": 491.2313778238886,
        "timestamp": "2025-12-13T16:48:32.371162+00:00",
        "meta_object_name": "CARTOSAT-3",
        "meta_object_id": "2019-081A",
        "meta_epoch": "2025-12-12T23:01:55.458624",
        "meta_mean_motion": 15.19154654,
        "meta_eccentricity": 0.00141908,
        "meta_inclination": 97.4585,
        "meta_ra_of_asc_node": 46.5399,
        "meta_arg_of_pericenter": 82.6502,
        "meta_mean_anomaly": 277.6345,
        "meta_ephemeris_type": 0,
        "meta_classification_type": "U",
        "meta_norad_cat_id": 44804,
        "meta_element_set_no": 999,
        "meta_rev_at_epoch": 33519,
        "meta_bstar": 0.00033979238,
        "meta_mean_motion_dot": 7.093e-05,
        "meta_mean_motion_ddot": 0,
        "tle_line1": "1 44804U 19081A   25346.95966966  .00007093  00000+0  33979-3 0  9997",
        "tle_line2": "2 44804  97.4585  46.5399 0014190  82.6502 277.6345 15.19154654335190"
      },
      "geometry": {
        "type": "Point",
        "coordinates": [
          -32.230191636012755,
          82.41075359236768
        ]
      }
    },
    {
      "type": "Feature",
      "properties": {
        "norad_id": 44819,
        "name": "GAOFEN-12 01",
        "group": "resource",
        "lat": 58.390779203929476,
        "lon": -18.93476568826957,
        "alt_km": 622.5491761233834,
        "timestamp": "2025-12-13T16:48:32.371173+00:00",
        "meta_object_name": "GAOFEN-12 01",
        "meta_object_id": "2019-082A",
        "meta_epoch": "2025-12-13T00:19:23.725056",
        "meta_mean_motion": 14.80657789,
        "meta_eccentricity": 0.00013431,
        "meta_inclination": 97.8126,
        "meta_ra_of_asc_node": 353.2873,
        "meta_arg_of_pericenter": 231.6082,
        "meta_mean_anomaly": 128.501,
        "meta_ephemeris_type": 0,
        "meta_classification_type": "U",
        "meta_norad_cat_id": 44819,
        "meta_element_set_no": 999,
        "meta_rev_at_epoch": 32654,
        "meta_bstar": 0.00011122527,
        "meta_mean_motion_dot": 8.04e-06,
        "meta_mean_motion_ddot": 0,
        "tle_line1": "1 44819U 19082A   25347.01346904  .00000804  00000+0  11123-3 0  9996",
        "tle_line2": "2 44819  97.8126 353.2873 0001343 231.6082 128.5010 14.80657789326547"
      },
      "geometry": {
        "type": "Point",
        "coordinates": [
          -18.93476568826957,
          58.390779203929476
        ]
      }
    }
  ]
}